CZ-4B R/B               
1 27432U 02024C   23339.55171347  .00000091  00000+0  70562-4 0  9992
2 27432  99.0037  15.6683 0050027 200.8758 285.5238 14.14263181112593
MIDORI II (ADEOS-II)    
1 27597U 02056A   23340.47245223  .00000489  00000+0  21439-3 0  9996
2 27597  98.6694 283.2397 0000394 126.7691 233.3527 14.28114365 92580
H-2A R/B                
1 27601U 02056E   23339.92540532  .00000467  00000+0  18161-3 0  9995
2 27601  98.2095 321.9135 0072746 100.7106 280.9066 14.32560979 95973
CZ-4B R/B               
1 28059U 03049C   23340.48610081  .00000563  00000+0  14500-3 0  9996
2 28059  98.5844 292.7618 0048454 226.4290 133.2878 14.53450785 66780
CZ-2C R/B               
1 28222U 04012C   23340.45818708  .00009393  00000+0  41811-3 0  9997
2 28222  97.8090 340.6685 0038041   7.3099 352.8682 15.21043011 77621
SL-16 R/B               
1 28353U 04021B   23340.45392962 -.00000062  00000+0 -75670-5 0  9999
2 28353  71.0001 161.9070 0006571 231.1471 128.9066 14.14372441  6283
CZ-4B R/B               
1 28415U 04035C   23340.11819527  .00005665  00000+0  31738-3 0  9994
2 28415  97.4499  13.2300 0044625 337.3153  22.6105 15.12947493 54593
CZ-2C R/B               
1 28480U 04046B   23339.83533455  .00000409  00000+0  16831-3 0  9996
2 28480  98.1378 292.3826 0142302  74.3412 287.3419 14.26174746990885
ARIANE 5 R/B            
1 28499U 04049H   23339.97396930  .00001709  00000+0  20868-3 0  9998
2 28499  98.1575 108.9061 0090034 140.3844 220.3993 14.81857258 23523
CZ-2D R/B               
1 28738U 05024B   23340.44996390  .00007258  00000+0  32642-3 0  9996
2 28738  97.3605 337.6284 0011804 103.6525 256.6026 15.21347921 13173
SUZAKU (ASTRO-EII)      
1 28773U 05025A   23340.18795053  .00018909  00000+0  53895-3 0  9998
2 28773  31.3911   4.3745 0002482 108.6464 251.4458 15.34869520 17083
ALOS (DAICHI)           
1 28931U 06002A   23340.42597340  .00001508  00000+0  29106-3 0  9991
2 28931  98.0122 293.0773 0002285  70.5587 289.5863 14.64843971952977
H-2A R/B                
1 28932U 06002B   23340.14956472  .00005654  00000+0  44955-3 0  9991
2 28932  98.2243  56.2233 0079682 124.6575 236.2190 14.98365034970357
RESURS-DK 1             
1 29228U 06021A   23340.01543425  .00002296  00000+0  16443-3 0  9997
2 29228  69.9338 199.1993 0006960 296.0863  63.9582 15.05908848963109
GENESIS 1               
1 29252U 06029A   23340.50602369  .00013096  00000+0  43725-3 0  9992
2 29252  64.5182  95.9452 0003840 253.0196 107.0513 15.31318412960936
CZ-4B R/B               
1 29507U 06046C   23339.87923324  .00003407  00000+0  23648-3 0  9996
2 29507  97.6697  12.1146 0040950 216.5706 143.2724 15.05582808935461
CZ-2C R/B               
1 31114U 07010B   23340.37622429  .00000254  00000+0  13657-3 0  9990
2 31114  98.3032 123.1147 0059718 171.7886 188.4283 14.19671337862747
COSMO-SKYMED 1          
1 31598U 07023A   23340.44833476  .00000813  00000+0  10868-3 0  9996
2 31598  97.8852 161.4424 0001292  78.5271 281.6087 14.82160546892494
GENESIS 2               
1 31789U 07028A   23339.50880974  .00013771  00000+0  46628-3 0  9993
2 31789  64.4914 144.0688 0045207 238.5048 121.1660 15.29863897907570
COSMOS 2428             
1 31792U 07029A   23340.46929071  .00000436  00000+0  26113-3 0  9998
2 31792  70.9370 133.1839 0010686 310.2012  49.8173 14.12628263847767
SL-16 R/B               
1 31793U 07029B   23339.56336576  .00000248  00000+0  15392-3 0  9998
2 31793  70.9748 106.5290 0002048 256.3485 178.9939 14.14573704848765
KORONAS-FOTON           
1 33504U 09003A   23339.25141812  .00007703  00000+0  32626-3 0  9999
2 33504  82.4404  39.5156 0016307 201.0029 159.0540 15.22882667819323
CZ-2C R/B               
1 37731U 11030B   23339.90817601  .00001421  00000+0  20449-3 0  9997
2 37731  97.7382 306.3254 0057931 148.9391 228.2346 14.76745297668179
H-2A R/B                
1 38341U 12025E   23340.18410386  .00002511  00000+0  27943-3 0  9998
2 38341  98.4348 234.6306 0053405 115.6546 245.0199 14.87121900625428
CUSAT 2 & FALCON 9 R/B  
1 39271U 13055G   23340.03282721  .00033973 -30118-6  51766-3 0  9996
2 39271  80.9426 309.5857 0382802 226.9342 129.9247 15.00334693536070
SHIJIAN-16 (SJ-16)      
1 39358U 13057A   23340.45058784  .00002514  00000+0  27698-3 0  9993
2 39358  74.9737 300.3890 0019594 303.0131  56.9172 14.87854760548792
CZ-2C R/B               
1 39364U 13059B   23339.90656126  .00041382  00000+0  61189-3 0  9993
2 39364  97.0791  23.7087 0025348 181.5206 178.5976 15.54821998562752
SL-4 R/B                
1 39679U 14021B   23340.17907560  .00009221  00000+0  37687-3 0  9996
2 39679  51.6126 324.9593 0147141  33.6551 327.3662 15.15722958530623
ALOS-2                  
1 39766U 14029A   23340.40971890  .00002487  00000+0  33976-3 0  9998
2 39766  97.9230  74.8377 0001468 101.4795 258.6581 14.79472521515025
SL-27 R/B               
1 40354U 14084B   23340.15205273  .00025351  00000+0  30627-3 0  9996
2 40354  74.7307 267.9131 0024872 182.1576 177.9543 15.60217211504155
YAOGAN-29               
1 41038U 15069A   23340.48040887  .00000695  00000+0  95826-4 0  9991
2 41038  98.0618 348.7388 0002905 124.9627 235.1858 14.81385041433780
ASTRO-H (HITOMI)        
1 41337U 16012A   23339.94085277  .00003273  00000+0  23575-3 0  9999
2 41337  31.0028 248.0777 0011409   2.1525 357.9158 15.02241554427773
HXMT (HUIYAN)           
1 42758U 17034A   23340.26112794  .00007887  00000+0  43179-3 0  9991
2 42758  43.0148 268.8154 0002192   3.7808 356.3055 15.14560359357430
CZ-2C R/B               
1 43521U 18054D   23339.86728355  .00008536  00000+0  34063-3 0  9997
2 43521  35.1501 260.3542 0064386 180.6703 179.3936 15.22507036301188
SAOCOM 1A               
1 43641U 18076A   23340.45670841  .00000634  00000+0  86245-4 0  9998
2 43641  97.8849 164.4732 0001362  90.4296 269.7073 14.82139414279272
H-2A R/B                
1 43682U 18084L   23340.15766711  .00006750  00000+0  39798-3 0  9996
2 43682  98.8754  31.5089 0047278 295.6491  63.9855 15.11056225280167
SAOCOM 1B               
1 46265U 20059A   23340.48795149  .00000720  00000+0  97045-4 0  9995
2 46265  97.8853 163.5879 0001344  93.6428 266.4938 14.82155279176677
CSS (TIANHE)            
1 48274U 21035A   23340.04125884  .00016209  00000+0  17442-3 0  9998
2 48274  41.4693 189.3089 0007922 282.3768  77.6185 15.63323894148706
COSMOS 2550             
1 48865U 21056A   23340.48926453  .00006878  00000+0  21467-3 0  9999
2 48865  67.1442  14.3017 0008402 269.2650  90.7542 15.33834406137079
2022-019U               
1 51842U 22019U   23340.47463397  .00036003  00000+0  72314-3 0  9990
2 51842  97.5212  71.8454 0043530  84.5032 276.1179 15.45524151 98962
CZ-2C R/B               
1 52794U 22058K   23339.56246901  .00008032  00000+0  36231-3 0  9997
2 52794  50.1676 112.6365 0087914  67.5737 293.4502 15.18468793 83505
CZ-2C R/B               
1 53131U 22082D   23339.87316050  .00046167  00000+0  48629-3 0  9992
2 53131  97.3341 359.5544 0023785 328.2348  31.7475 15.63783783 78465
XRISM                   
1 57800U 23137A   23340.51061627  .00003668  00000+0  29012-3 0  9995
2 57800  31.0017 163.0559 0009968  89.5285 270.6492 14.98841226 13584
